[
    {
        "Altitude(m)": 624790.7841674589,
        "Argument of Periapsis(deg)": 0.0,
        "Eccentricity": 0.0,
        "Inclination(deg)": 60.0,
        "Latitude(deg)": -59.14708256238639,
        "Longitude(deg)": 41.03476386033653,
        "Mean Anomaly(deg)": -81.81820000000006,
        "RAAN(deg)": 215.0,
        "Satellite Name": "Test1 963",
        "Satellite Number": 963,
        "Semi-Major Axis(m)": 6980739.136638005,
        "Time(s)": 0
    },
    {
        "Altitude(m)": 624737.4385964093,
        "Argument of Periapsis(deg)": 0.00010418945913296404,
        "Eccentricity": 0.0,
        "Inclination(deg)": 60.0,
        "Latitude(deg)": -58.99453586278979,
        "Longitude(deg)": 42.154263844913565,
        "Mean Anomaly(deg)": -81.1980938545382,
        "RAAN(deg)": 214.99957995086024,
        "Satellite Name": "Test1 963",
        "Satellite Number": 963,
        "Semi-Major Axis(m)": 6980739.136638005,
        "Time(s)": 10
    },
    {
        "Altitude(m)": 624680.3094382384,
        "Argument of Periapsis(deg)": 0.0002083789182659281,
        "Eccentricity": 0.0,
        "Inclination(deg)": 60.0,
        "Latitude(deg)": -58.83167759765378,
        "Longitude(deg)": 43.26321136207664,
        "Mean Anomaly(deg)": -80.57798770907638,
        "RAAN(deg)": 214.99915990172053,
        "Satellite Name": "Test1 963",
        "Satellite Number": 963,
        "Semi-Major Axis(m)": 6980739.136638005,
        "Time(s)": 20
    },
    {
        "Altitude(m)": 624619.4191586293,
        "Argument of Periapsis(deg)": 0.00031256837739889213,
        "Eccentricity": 0.0,
        "Inclination(deg)": 60.0,
        "Latitude(deg)": -58.65866840470026,
        "Longitude(deg)": 44.361098344140586,
        "Mean Anomaly(deg)": -79.95788156361452,
        "RAAN(deg)": 214.99873985258077,
        "Satellite Name": "Test1 963",
        "Satellite Number": 963,
        "Semi-Major Axis(m)": 6980739.136638005,
        "Time(s)": 30
    },
    {
        "Altitude(m)": 624554.7917003328,
        "Argument of Periapsis(deg)": 0.0004167578365318562,
        "Eccentricity": 0.0,
        "Inclination(deg)": 60.0,
        "Latitude(deg)": -58.47567530601955,
        "Longitude(deg)": 45.44745682656232,
        "Mean Anomaly(deg)": -79.3377754181527,
        "RAAN(deg)": 214.99831980344103,
        "Satellite Name": "Test1 963",
        "Satellite Number": 963,
        "Semi-Major Axis(m)": 6980739.136638005,
        "Time(s)": 40
    },
    {
        "Altitude(m)": 624486.4524730818,
        "Argument of Periapsis(deg)": 0.0005209472956648203,
        "Eccentricity": 0.0,
        "Inclination(deg)": 60.0,
        "Latitude(deg)": -58.28287100549225,
        "Longitude(deg)": 46.521858185170096,
        "Mean Anomaly(deg)": -78.71766927269084,
        "RAAN(deg)": 214.99789975430127,
        "Satellite Name": "Test1 963",
        "Satellite Number": 963,
        "Semi-Major Axis(m)": 6980739.136638005,
        "Time(s)": 50
    },
    {
        "Altitude(m)": 624414.4283428614,
        "Argument of Periapsis(deg)": 0.0006251367547977843,
        "Eccentricity": 0.0,
        "Inclination(deg)": 60.0,
        "Latitude(deg)": -58.08043319217202,
        "Longitude(deg)": 47.58391360180189,
        "Mean Anomaly(deg)": -78.09756312722902,
        "RAAN(deg)": 214.99747970516157,
        "Satellite Name": "Test1 963",
        "Satellite Number": 963,
        "Semi-Major Axis(m)": 6980739.136638005,
        "Time(s)": 60
    },
    {
        "Altitude(m)": 624338.747620581,
        "Argument of Periapsis(deg)": 0.0007293262139307483,
        "Eccentricity": 0.0,
        "Inclination(deg)": 60.0,
        "Latitude(deg)": -57.86854385489915,
        "Longitude(deg)": 48.63327426501279,
        "Mean Anomaly(deg)": -77.47745698176716,
        "RAAN(deg)": 214.9970596560218,
        "Satellite Name": "Test1 963",
        "Satellite Number": 963,
        "Semi-Major Axis(m)": 6980739.136638005,
        "Time(s)": 70
    },
    {
        "Altitude(m)": 624259.4400501146,
        "Argument of Periapsis(deg)": 0.0008335156730637124,
        "Eccentricity": 0.0,
        "Inclination(deg)": 60.0,
        "Latitude(deg)": -57.64738861289527,
        "Longitude(deg)": 49.6696298146388,
        "Mean Anomaly(deg)": -76.85735083630533,
        "RAAN(deg)": 214.99663960688207,
        "Satellite Name": "Test1 963",
        "Satellite Number": 963,
        "Semi-Major Axis(m)": 6980739.136638005,
        "Time(s)": 80
    },
    {
        "Altitude(m)": 624176.5367957489,
        "Argument of Periapsis(deg)": 0.0009377051321966765,
        "Eccentricity": 0.0,
        "Inclination(deg)": 60.0,
        "Latitude(deg)": -57.4171560665299,
        "Longitude(deg)": 50.692708079154364,
        "Mean Anomaly(deg)": -76.23724469084348,
        "RAAN(deg)": 214.9962195577423,
        "Satellite Name": "Test1 963",
        "Satellite Number": 963,
        "Semi-Major Axis(m)": 6980739.136638005,
        "Time(s)": 90
    },
    {
        "Altitude(m)": 624090.0704290093,
        "Argument of Periapsis(deg)": 0.0010418945913296407,
        "Eccentricity": 0.0,
        "Inclination(deg)": 60.0,
        "Latitude(deg)": -57.17803717189124,
        "Longitude(deg)": 51.702274617118746,
        "Mean Anomaly(deg)": -75.61713854538165,
        "RAAN(deg)": 214.9957995086026,
        "Satellite Name": "Test1 963",
        "Satellite Number": 963,
        "Semi-Major Axis(m)": 6980739.136638005,
        "Time(s)": 100
    },
    {
        "Altitude(m)": 624000.0749148892,
        "Argument of Periapsis(deg)": 0.0011460840504626045,
        "Eccentricity": 0.0,
        "Inclination(deg)": 60.0,
        "Latitude(deg)": -56.930224642223905,
        "Longitude(deg)": 52.69813057444956,
        "Mean Anomaly(deg)": -74.9970323999199,
        "RAAN(deg)": 214.99537945946287,
        "Satellite Name": "Test1 963",
        "Satellite Number": 963,
        "Semi-Major Axis(m)": 6980739.136638005,
        "Time(s)": 110
    },
    {
        "Altitude(m)": 623906.5855974924,
        "Argument of Periapsis(deg)": 0.0012502735095955685,
        "Eccentricity": 0.0,
        "Inclination(deg)": 60.0,
        "Latitude(deg)": -56.67391237873133,
        "Longitude(deg)": 53.68011190784291,
        "Mean Anomaly(deg)": -74.37692625445797,
        "RAAN(deg)": 214.9949594103231,
        "Satellite Name": "Test1 963",
        "Satellite Number": 963,
        "Semi-Major Axis(m)": 6980739.136638005,
        "Time(s)": 120
    },
    {
        "Altitude(m)": 623809.6391850798,
        "Argument of Periapsis(deg)": 0.0013544629687285324,
        "Eccentricity": 0.0,
        "Inclination(deg)": 60.0,
        "Latitude(deg)": -56.409294932707084,
        "Longitude(deg)": 54.64808848559062,
        "Mean Anomaly(deg)": -73.75682010899622,
        "RAAN(deg)": 214.99453936118334,
        "Satellite Name": "Test1 963",
        "Satellite Number": 963,
        "Semi-Major Axis(m)": 6980739.136638005,
        "Time(s)": 130
    },
    {
        "Altitude(m)": 623709.2737345168,
        "Argument of Periapsis(deg)": 0.0014586524278614966,
        "Eccentricity": 0.0,
        "Inclination(deg)": 60.0,
        "Latitude(deg)": -56.136567000444124,
        "Longitude(deg)": 55.60196157624223,
        "Mean Anomaly(deg)": -73.13671396353439,
        "RAAN(deg)": 214.99411931204364,
        "Satellite Name": "Test1 963",
        "Satellite Number": 963,
        "Semi-Major Axis(m)": 6980739.136638005,
        "Time(s)": 140
    },
    {
        "Altitude(m)": 623605.5286351688,
        "Argument of Periapsis(deg)": 0.0015628418869944607,
        "Eccentricity": 0.0,
        "Inclination(deg)": 60.0,
        "Latitude(deg)": -55.85592295188927,
        "Longitude(deg)": 56.541662773049715,
        "Mean Anomaly(deg)": -72.51660781807254,
        "RAAN(deg)": 214.99369926290385,
        "Satellite Name": "Test1 963",
        "Satellite Number": 963,
        "Semi-Major Axis(m)": 6980739.136638005,
        "Time(s)": 150
    },
    {
        "Altitude(m)": 623498.4445921935,
        "Argument of Periapsis(deg)": 0.0016670313461274247,
        "Eccentricity": 0.0,
        "Inclination(deg)": 60.0,
        "Latitude(deg)": -55.567556393571884,
        "Longitude(deg)": 57.46715286218676,
        "Mean Anomaly(deg)": -71.89650167261071,
        "RAAN(deg)": 214.99327921376414,
        "Satellite Name": "Test1 963",
        "Satellite Number": 963,
        "Semi-Major Axis(m)": 6980739.136638005,
        "Time(s)": 160
    },
    {
        "Altitude(m)": 623388.0636092915,
        "Argument of Periapsis(deg)": 0.0017712208052603888,
        "Eccentricity": 0.0,
        "Inclination(deg)": 60.0,
        "Latitude(deg)": -55.27165976593859,
        "Longitude(deg)": 58.378419141207154,
        "Mean Anomaly(deg)": -71.27639552714896,
        "RAAN(deg)": 214.99285916462438,
        "Satellite Name": "Test1 963",
        "Satellite Number": 963,
        "Semi-Major Axis(m)": 6980739.136638005,
        "Time(s)": 170
    },
    {
        "Altitude(m)": 623274.4289708777,
        "Argument of Periapsis(deg)": 0.001875410264393353,
        "Eccentricity": 0.0,
        "Inclination(deg)": 60.0,
        "Latitude(deg)": -54.9684239748643,
        "Longitude(deg)": 59.27547423117501,
        "Mean Anomaly(deg)": -70.65628938168703,
        "RAAN(deg)": 214.99243911548464,
        "Satellite Name": "Test1 963",
        "Satellite Number": 963,
        "Semi-Major Axis(m)": 6980739.136638005,
        "Time(s)": 180
    },
    {
        "Altitude(m)": 623157.5852237075,
        "Argument of Periapsis(deg)": 0.0019795997235263173,
        "Eccentricity": 0.0,
        "Inclination(deg)": 60.0,
        "Latitude(deg)": -54.65803805680532,
        "Longitude(deg)": 60.15835488556745,
        "Mean Anomaly(deg)": -70.03618323622528,
        "RAAN(deg)": 214.99201906634488,
        "Satellite Name": "Test1 963",
        "Satellite Number": 963,
        "Semi-Major Axis(m)": 6980739.136638005,
        "Time(s)": 190
    }
]